{"type": "FeatureCollection", "features": [ {"type": "Feature", "properties": {"norad_id": 40664, "name": "SKY MEXICO-1", "group": "intelsat", "lat": -0.0263930661413711, "lon": -38.08123956709, "alt_km": 35778.70039199129, "timestamp": "2025-12-08T21:31:04.343081+00:00", "meta": {"OBJECT_NAME": "SKY MEXICO-1", "OBJECT_ID": "2015-026B", "EPOCH": "2025-12-08T12:34:27.241824", "MEAN_MOTION": 1.00270912, "ECCENTRICITY": 0.00027697, "INCLINATION": 0.0221, "RA_OF_ASC_NODE": 53.0322, "ARG_OF_PERICENTER": 219.8086, "MEAN_ANOMALY": 274.5373, "EPHEMERIS_TYPE": 0, "CLASSIFICATION_TYPE": "U", "NORAD_CAT_ID": 40664, "ELEMENT_SET_NO": 999, "REV_AT_EPOCH": 3854, "BSTAR": 0, "MEAN_MOTION_DOT": -2.32e-06, "MEAN_MOTION_DDOT": 0}, "tle": {"line1": "1 40664U 15026B   25342.52392641 -.00000232  00000+0  00000+0 0  9998", "line2": "2 40664   0.0221  53.0322 0002769 219.8086 274.5373  1.00270912 38543"}}, "geometry": {"type": "Point", "coordinates": [-38.08123956709, -0.0263930661413711]}}, {"type": "Feature", "properties": {"norad_id": 40874, "name": "INTELSAT 34 (IS-34)", "group": "intelsat", "lat": 0.013212453183631831, "lon": -14.830125707104557, "alt_km": 35789.60024142835, "timestamp": "2025-12-08T21:31:04.343093+00:00", "meta": {"OBJECT_NAME": "INTELSAT 34 (IS-34)", "OBJECT_ID": "2015-039A", "EPOCH": "2025-12-08T13:20:16.274688", "MEAN_MOTION": 1.00271129, "ECCENTRICITY": 8.055e-05, "INCLINATION": 0.0141, "RA_OF_ASC_NODE": 304.4287, "ARG_OF_PERICENTER": 233.4729, "MEAN_ANOMALY": 44.2351, "EPHEMERIS_TYPE": 0, "CLASSIFICATION_TYPE": "U", "NORAD_CAT_ID": 40874, "ELEMENT_SET_NO": 999, "REV_AT_EPOCH": 3771, "BSTAR": 0, "MEAN_MOTION_DOT": -2.83e-06, "MEAN_MOTION_DDOT": 0}, "tle": {"line1": "1 40874U 15039A   25342.55574392 -.00000283  00000+0  00000+0 0  9999", "line2": "2 40874   0.0141 304.4287 0000805 233.4729  44.2351  1.00271129 37712"}}, "geometry": {"type": "Point", "coordinates": [-14.830125707104557, 0.013212453183631831]}}, {"type": "Feature", "properties": {"norad_id": 41581, "name": "INTELSAT 31 (IS-31)", "group": "intelsat", "lat": 0.0014299963025636228, "lon": -54.38226818683358, "alt_km": 35786.25695453271, "timestamp": "2025-12-08T21:31:04.343104+00:00", "meta": {"OBJECT_NAME": "INTELSAT 31 (IS-31)", "OBJECT_ID": "2016-035A", "EPOCH": "2025-12-08T12:24:17.231040", "MEAN_MOTION": 1.00269201, "ECCENTRICITY": 0.0001923, "INCLINATION": 0.0201, "RA_OF_ASC_NODE": 270.4378, "ARG_OF_PERICENTER": 308.9004, "MEAN_ANOMALY": 309.1947, "EPHEMERIS_TYPE": 0, "CLASSIFICATION_TYPE": "U", "NORAD_CAT_ID": 41581, "ELEMENT_SET_NO": 999, "REV_AT_EPOCH": 3477, "BSTAR": 0, "MEAN_MOTION_DOT": -1.48e-06, "MEAN_MOTION_DDOT": 0}, "tle": {"line1": "1 41581U 16035A   25342.51686610 -.00000148  00000+0  00000+0 0  9995", "line2": "2 41581   0.0201 270.4378 0001923 308.9004 309.1947  1.00269201 34779"}}, "geometry": {"type": "Point", "coordinates": [-54.38226818683358, 0.0014299963025636228]}}, {"type": "Feature", "properties": {"norad_id": 41747, "name": "INTELSAT 36 (IS-36)", "group": "intelsat", "lat": 0.02798804154565866, "lon": 109.16326009045439, "alt_km": 35791.84226053838, "timestamp": "2025-12-08T21:31:04.343116+00:00", "meta": {"OBJECT_NAME": "INTELSAT 36 (IS-36)", "OBJECT_ID": "2016-053A", "EPOCH": "2025-12-08T12:13:07.705344", "MEAN_MOTION": 1.0026981, "ECCENTRICITY": 0.00013784, "INCLINATION": 0.0114, "RA_OF_ASC_NODE": 350.963, "ARG_OF_PERICENTER": 324.2523, "MEAN_ANOMALY": 14.0801, "EPHEMERIS_TYPE": 0, "CLASSIFICATION_TYPE": "U", "NORAD_CAT_ID": 41747, "ELEMENT_SET_NO": 999, "REV_AT_EPOCH": 3403, "BSTAR": 0, "MEAN_MOTION_DOT": -2.2e-07, "MEAN_MOTION_DDOT": 0}, "tle": {"line1": "1 41747U 16053A   25342.50911696 -.00000022  00000+0  00000+0 0  9994", "line2": "2 41747   0.0114 350.9630 0001378 324.2523  14.0801  1.00269810 34038"}}, "geometry": {"type": "Point", "coordinates": [109.16326009045439, 0.02798804154565866]}}, {"type": "Feature", "properties": {"norad_id": 41945, "name": "INTELSAT 32E (IS-32E)", "group": "intelsat", "lat": -0.01612662081232968, "lon": -2.5045548959874435, "alt_km": 35784.86575142263, "timestamp": "2025-12-08T21:31:04.343127+00:00", "meta": {"OBJECT_NAME": "INTELSAT 32E (IS-32E)", "OBJECT_ID": "2017-007B", "EPOCH": "2025-12-08T09:58:28.100928", "MEAN_MOTION": 1.00273553, "ECCENTRICITY": 2.799e-05, "INCLINATION": 0.0258, "RA_OF_ASC_NODE": 66.5377, "ARG_OF_PERICENTER": 242.4063, "MEAN_ANOMALY": 234.9251, "EPHEMERIS_TYPE": 0, "CLASSIFICATION_TYPE": "U", "NORAD_CAT_ID": 41945, "ELEMENT_SET_NO": 999, "REV_AT_EPOCH": 3231, "BSTAR": 0, "MEAN_MOTION_DOT": -2.66e-06, "MEAN_MOTION_DDOT": 0}, "tle": {"line1": "1 41945U 17007B   25342.41560302 -.00000266  00000+0  00000+0 0  9998", "line2": "2 41945   0.0258  66.5377 0000279 242.4063 234.9251  1.00273553 32314"}}, "geometry": {"type": "Point", "coordinates": [-2.5045548959874435, -0.01612662081232968]}}, {"type": "Feature", "properties": {"norad_id": 42818, "name": "INTELSAT 35E (IS-35E)", "group": "intelsat", "lat": 0.02139769645881333, "lon": 6.188954622122898, "alt_km": 35788.871649534754, "timestamp": "2025-12-08T21:31:04.343139+00:00", "meta": {"OBJECT_NAME": "INTELSAT 35E (IS-35E)", "OBJECT_ID": "2017-041A", "EPOCH": "2025-12-08T10:00:57.862368", "MEAN_MOTION": 1.00269498, "ECCENTRICITY": 0.00023423, "INCLINATION": 0.0175, "RA_OF_ASC_NODE": 326.308, "ARG_OF_PERICENTER": 297.6288, "MEAN_ANOMALY": 289.2347, "EPHEMERIS_TYPE": 0, "CLASSIFICATION_TYPE": "U", "NORAD_CAT_ID": 42818, "ELEMENT_SET_NO": 999, "REV_AT_EPOCH": 3090, "BSTAR": 0, "MEAN_MOTION_DOT": -2.36e-06, "MEAN_MOTION_DDOT": 0}, "tle": {"line1": "1 42818U 17041A   25342.41733637 -.00000236  00000+0  00000+0 0  9996", "line2": "2 42818   0.0175 326.3080 0002342 297.6288 289.2347  1.00269498 30909"}}, "geometry": {"type": "Point", "coordinates": [6.188954622122898, 0.02139769645881333]}}, {"type": "Feature", "properties": {"norad_id": 42950, "name": "INTELSAT 37E (IS-37E)", "group": "intelsat", "lat": 0.017199819214827883, "lon": 22.690611421580993, "alt_km": 35795.516516808195, "timestamp": "2025-12-08T21:31:04.343150+00:00", "meta": {"OBJECT_NAME": "INTELSAT 37E (IS-37E)", "OBJECT_ID": "2017-059A", "EPOCH": "2025-12-08T10:05:34.920384", "MEAN_MOTION": 1.00270747, "ECCENTRICITY": 0.00034111, "INCLINATION": 0.0168, "RA_OF_ASC_NODE": 3.1652, "ARG_OF_PERICENTER": 250.2554, "MEAN_ANOMALY": 317.4037, "EPHEMERIS_TYPE": 0, "CLASSIFICATION_TYPE": "U", "NORAD_CAT_ID": 42950, "ELEMENT_SET_NO": 999, "REV_AT_EPOCH": 3015, "BSTAR": 0, "MEAN_MOTION_DOT": -1.38e-06, "MEAN_MOTION_DDOT": 0}, "tle": {"line1": "1 42950U 17059A   25342.42054306 -.00000138  00000+0  00000+0 0  9993", "line2": "2 42950   0.0168   3.1652 0003411 250.2554 317.4037  1.00270747 30158"}}, "geometry": {"type": "Point", "coordinates": [22.690611421580993, 0.017199819214827883]}}, {"type": "Feature", "properties": {"norad_id": 43632, "name": "AZERSPACE 2 (IS-38)", "group": "intelsat", "lat": 0.03724861958081074, "lon": 85.76738461720252, "alt_km": 35793.19270073447, "timestamp": "2025-12-08T21:31:04.343161+00:00", "meta": {"OBJECT_NAME": "AZERSPACE 2 (IS-38)", "OBJECT_ID": "2018-074A", "EPOCH": "2025-12-08T13:49:06.013056", "MEAN_MOTION": 1.00269934, "ECCENTRICITY": 0.00015806, "INCLINATION": 0.0177, "RA_OF_ASC_NODE": 335.2982, "ARG_OF_PERICENTER": 282.8901, "MEAN_ANOMALY": 71.7785, "EPHEMERIS_TYPE": 0, "CLASSIFICATION_TYPE": "U", "NORAD_CAT_ID": 43632, "ELEMENT_SET_NO": 999, "REV_AT_EPOCH": 2653, "BSTAR": 0, "MEAN_MOTION_DOT": 1.39e-06, "MEAN_MOTION_DDOT": 0}, "tle": {"line1": "1 43632U 18074A   25342.57576404  .00000139  00000+0  00000+0 0  9993", "line2": "2 43632   0.0177 335.2982 0001580 282.8901  71.7785  1.00269934 26536"}}, "geometry": {"type": "Point", "coordinates": [85.76738461720252, 0.03724861958081074]}}, {"type": "Feature", "properties": {"norad_id": 43633, "name": "HORIZONS-3E", "group": "intelsat", "lat": -0.017839864636066276, "lon": -150.34489364549745, "alt_km": 35786.29845474523, "timestamp": "2025-12-08T21:31:04.343173+00:00", "meta": {"OBJECT_NAME": "HORIZONS-3E", "OBJECT_ID": "2018-074B", "EPOCH": "2025-12-08T14:38:38.663808", "MEAN_MOTION": 1.00267707, "ECCENTRICITY": 0.00013308, "INCLINATION": 0.0425, "RA_OF_ASC_NODE": 176.8532, "ARG_OF_PERICENTER": 113.5784, "MEAN_ANOMALY": 175.8576, "EPHEMERIS_TYPE": 0, "CLASSIFICATION_TYPE": "U", "NORAD_CAT_ID": 43633, "ELEMENT_SET_NO": 999, "REV_AT_EPOCH": 2643, "BSTAR": 0, "MEAN_MOTION_DOT": -2.9e-07, "MEAN_MOTION_DDOT": 0}, "tle": {"line1": "1 43633U 18074B   25342.61016972 -.00000029  00000+0  00000+0 0  9997", "line2": "2 43633   0.0425 176.8532 0001330 113.5784 175.8576  1.00267707 26434"}}, "geometry": {"type": "Point", "coordinates": [-150.34489364549745, -0.017839864636066276]}}, {"type": "Feature", "properties": {"norad_id": 44333, "name": "AT&T T-16", "group": "intelsat", "lat": -0.028042849278035038, "lon": -60.181859428783596, "alt_km": 35787.28999986928, "timestamp": "2025-12-08T21:31:04.343185+00:00", "meta": {"OBJECT_NAME": "AT&T T-16", "OBJECT_ID": "2019-034A", "EPOCH": "2025-12-08T13:07:25.005216", "MEAN_MOTION": 1.00273465, "ECCENTRICITY": 7.821e-05, "INCLINATION": 0.0225, "RA_OF_ASC_NODE": 59.1349, "ARG_OF_PERICENTER": 120.069, "MEAN_ANOMALY": 354.3499, "EPHEMERIS_TYPE": 0, "CLASSIFICATION_TYPE": "U", "NORAD_CAT_ID": 44333, "ELEMENT_SET_NO": 999, "REV_AT_EPOCH": 2372, "BSTAR": 0, "MEAN_MOTION_DOT": -1.13e-06, "MEAN_MOTION_DDOT": 0}, "tle": {"line1": "1 44333U 19034A   25342.54681719 -.00000113  00000+0  00000+0 0  9995", "line2": "2 44333   0.0225  59.1349 0000782 120.0690 354.3499  1.00273465 23723"}}, "geometry": {"type": "Point", "coordinates": [-60.181859428783596, -0.028042849278035038]}}]}